{
  "type": "FeatureCollection",
  "features": [
    {
      "type": "Feature",
      "properties": {
        "norad_id": 35744,
        "name": "IRIDIUM 33 DEB",
        "group": "iridium-33-debris",
        "lat": -73.83670938994985,
        "lon": 154.52648286803077,
        "alt_km": 665.2083053817305,
        "timestamp": "2025-12-20T22:39:11.010045+00:00",
        "meta_object_name": "IRIDIUM 33 DEB",
        "meta_object_id": "1997-051RX",
        "meta_epoch": "2025-12-18T04:12:04.449600",
        "meta_mean_motion": 14.71066119,
        "meta_eccentricity": 0.00209704,
        "meta_inclination": 86.329,
        "meta_ra_of_asc_node": 322.9794,
        "meta_arg_of_pericenter": 172.7789,
        "meta_mean_anomaly": 187.3734,
        "meta_ephemeris_type": 0,
        "meta_classification_type": "U",
        "meta_norad_cat_id": 35744,
        "meta_element_set_no": 999,
        "meta_rev_at_epoch": 87411,
        "meta_bstar": 0.00085332597,
        "meta_mean_motion_dot": 5.283e-05,
        "meta_mean_motion_ddot": 0,
        "tle_line1": "1 35744U 97051RX  25352.17505150  .00005283  00000+0  85333-3 0  9998",
        "tle_line2": "2 35744  86.3290 322.9794 0020970 172.7789 187.3734 14.71066119874118"
      },
      "geometry": {
        "type": "Point",
        "coordinates": [
          154.52648286803077,
          -73.83670938994985
        ]
      }
    },
    {
      "type": "Feature",
      "properties": {
        "norad_id": 35797,
        "name": "IRIDIUM 33 DEB",
        "group": "iridium-33-debris",
        "lat": -29.684096704433045,
        "lon": -35.89096656665828,
        "alt_km": 634.9214583660005,
        "timestamp": "2025-12-20T22:39:11.010055+00:00",
        "meta_object_name": "IRIDIUM 33 DEB",
        "meta_object_id": "1997-051SF",
        "meta_epoch": "2025-12-20T04:58:23.124576",
        "meta_mean_motion": 14.82943756,
        "meta_eccentricity": 0.00144438,
        "meta_inclination": 86.3358,
        "meta_ra_of_asc_node": 326.5409,
        "meta_arg_of_pericenter": 124.2299,
        "meta_mean_anomaly": 236.0295,
        "meta_ephemeris_type": 0,
        "meta_classification_type": "U",
        "meta_norad_cat_id": 35797,
        "meta_element_set_no": 999,
        "meta_rev_at_epoch": 87451,
        "meta_bstar": 0.0011307637,
        "meta_mean_motion_dot": 9.219e-05,
        "meta_mean_motion_ddot": 0,
        "tle_line1": "1 35797U 97051SF  25354.20721209  .00009219  00000+0  11308-2 0  9990",
        "tle_line2": "2 35797  86.3358 326.5409 0014443 124.2299 236.0295 14.82943756874511"
      },
      "geometry": {
        "type": "Point",
        "coordinates": [
          -35.89096656665828,
          -29.684096704433045
        ]
      }
    },
    {
      "type": "Feature",
      "properties": {
        "norad_id": 35806,
        "name": "IRIDIUM 33 DEB",
        "group": "iridium-33-debris",
        "lat": -64.46644264240854,
        "lon": -155.29206490960215,
        "alt_km": 719.654700949678,
        "timestamp": "2025-12-20T22:39:11.010064+00:00",
        "meta_object_name": "IRIDIUM 33 DEB",
        "meta_object_id": "1997-051SQ",
        "meta_epoch": "2025-12-16T08:46:37.248096",
        "meta_mean_motion": 14.57379748,
        "meta_eccentricity": 0.00158634,
        "meta_inclination": 86.3444,
        "meta_ra_of_asc_node": 19.032,
        "meta_arg_of_pericenter": 64.1996,
        "meta_mean_anomaly": 296.0847,
        "meta_ephemeris_type": 0,
        "meta_classification_type": "U",
        "meta_norad_cat_id": 35806,
        "meta_element_set_no": 999,
        "meta_rev_at_epoch": 86377,
        "meta_bstar": 0.00073764812,
        "meta_mean_motion_dot": 3.369e-05,
        "meta_mean_motion_ddot": 0,
        "tle_line1": "1 35806U 97051SQ  25350.36570889  .00003369  00000+0  73765-3 0  9996",
        "tle_line2": "2 35806  86.3444  19.0320 0015863  64.1996 296.0847 14.57379748863778"
      },
      "geometry": {
        "type": "Point",
        "coordinates": [
          -155.29206490960215,
          -64.46644264240854
        ]
      }
    },
    {
      "type": "Feature",
      "properties": {
        "norad_id": 35809,
        "name": "IRIDIUM 33 DEB",
        "group": "iridium-33-debris",
        "lat": 73.31664135953372,
        "lon": -16.015176185922474,
        "alt_km": 640.4036045250014,
        "timestamp": "2025-12-20T22:39:11.010073+00:00",
        "meta_object_name": "IRIDIUM 33 DEB",
        "meta_object_id": "1997-051ST",
        "meta_epoch": "2025-12-10T16:35:56.421600",
        "meta_mean_motion": 14.75629145,
        "meta_eccentricity": 0.00097103,
        "meta_inclination": 86.329,
        "meta_ra_of_asc_node": 336.2813,
        "meta_arg_of_pericenter": 251.0565,
        "meta_mean_anomaly": 108.9602,
        "meta_ephemeris_type": 0,
        "meta_classification_type": "U",
        "meta_norad_cat_id": 35809,
        "meta_element_set_no": 999,
        "meta_rev_at_epoch": 86777,
        "meta_bstar": 0.0026432017,
        "meta_mean_motion_dot": 0.00018102,
        "meta_mean_motion_ddot": 0,
        "tle_line1": "1 35809U 97051ST  25344.69162525  .00018102  00000+0  26432-2 0  9991",
        "tle_line2": "2 35809  86.3290 336.2813 0009710 251.0565 108.9602 14.75629145867777"
      },
      "geometry": {
        "type": "Point",
        "coordinates": [
          -16.015176185922474,
          73.31664135953372
        ]
      }
    },
    {
      "type": "Feature",
      "properties": {
        "norad_id": 35846,
        "name": "IRIDIUM 33 DEB",
        "group": "iridium-33-debris",
        "lat": -28.67115481975409,
        "lon": 53.35245314950787,
        "alt_km": 767.7137003500675,
        "timestamp": "2025-12-20T22:39:11.010082+00:00",
        "meta_object_name": "IRIDIUM 33 DEB",
        "meta_object_id": "1997-051SW",
        "meta_epoch": "2025-12-19T21:49:32.159136",
        "meta_mean_motion": 14.43182687,
        "meta_eccentricity": 0.001947,
        "meta_inclination": 86.3741,
        "meta_ra_of_asc_node": 55.781,
        "meta_arg_of_pericenter": 147.8852,
        "meta_mean_anomaly": 212.3539,
        "meta_ephemeris_type": 0,
        "meta_classification_type": "U",
        "meta_norad_cat_id": 35846,
        "meta_element_set_no": 999,
        "meta_rev_at_epoch": 71432,
        "meta_bstar": 0.00035968,
        "meta_mean_motion_dot": 1.231e-05,
        "meta_mean_motion_ddot": 0,
        "tle_line1": "1 35846U 97051SW  25353.90939999  .00001231  00000+0  35968-3 0  9993",
        "tle_line2": "2 35846  86.3741  55.7810 0019470 147.8852 212.3539 14.43182687714325"
      },
      "geometry": {
        "type": "Point",
        "coordinates": [
          53.35245314950787,
          -28.67115481975409
        ]
      }
    },
    {
      "type": "Feature",
      "properties": {
        "norad_id": 35848,
        "name": "IRIDIUM 33 DEB",
        "group": "iridium-33-debris",
        "lat": 68.70244047198575,
        "lon": -176.8857154194383,
        "alt_km": 622.7278058214124,
        "timestamp": "2025-12-20T22:39:11.010091+00:00",
        "meta_object_name": "IRIDIUM 33 DEB",
        "meta_object_id": "1997-051SY",
        "meta_epoch": "2025-12-16T19:05:07.807200",
        "meta_mean_motion": 14.78723023,
        "meta_eccentricity": 0.00083075,
        "meta_inclination": 86.3897,
        "meta_ra_of_asc_node": 14.3007,
        "meta_arg_of_pericenter": 174.3439,
        "meta_mean_anomaly": 185.7876,
        "meta_ephemeris_type": 0,
        "meta_classification_type": "U",
        "meta_norad_cat_id": 35848,
        "meta_element_set_no": 999,
        "meta_rev_at_epoch": 66750,
        "meta_bstar": 0.0011327955,
        "meta_mean_motion_dot": 8.343e-05,
        "meta_mean_motion_ddot": 0,
        "tle_line1": "1 35848U 97051SY  25350.79522925  .00008343  00000+0  11328-2 0  9990",
        "tle_line2": "2 35848  86.3897  14.3007 0008307 174.3439 185.7876 14.78723023667508"
      },
      "geometry": {
        "type": "Point",
        "coordinates": [
          -176.8857154194383,
          68.70244047198575
        ]
      }
    },
    {
      "type": "Feature",
      "properties": {
        "norad_id": 35850,
        "name": "IRIDIUM 33 DEB",
        "group": "iridium-33-debris",
        "lat": 80.97288297919307,
        "lon": 4.210415086879018,
        "alt_km": 623.2648682403697,
        "timestamp": "2025-12-20T22:39:11.010101+00:00",
        "meta_object_name": "IRIDIUM 33 DEB",
        "meta_object_id": "1997-051TA",
        "meta_epoch": "2025-12-17T06:35:50.424288",
        "meta_mean_motion": 14.78922738,
        "meta_eccentricity": 0.00098245,
        "meta_inclination": 86.3492,
        "meta_ra_of_asc_node": 342.1832,
        "meta_arg_of_pericenter": 168.4252,
        "meta_mean_anomaly": 191.7196,
        "meta_ephemeris_type": 0,
        "meta_classification_type": "U",
        "meta_norad_cat_id": 35850,
        "meta_element_set_no": 999,
        "meta_rev_at_epoch": 71424,
        "meta_bstar": 0.0012101447,
        "meta_mean_motion_dot": 8.956e-05,
        "meta_mean_motion_ddot": 0,
        "tle_line1": "1 35850U 97051TA  25351.27488917  .00008956  00000+0  12101-2 0  9999",
        "tle_line2": "2 35850  86.3492 342.1832 0009824 168.4252 191.7196 14.78922738714242"
      },
      "geometry": {
        "type": "Point",
        "coordinates": [
          4.210415086879018,
          80.97288297919307
        ]
      }
    }
  ]
}